{"fetched_at": "2026-06-03T16:05:19.217548+00:00", "line1": "1 36744U 10032A   26152.73864208 -.00000334  00000+0  00000+0 0  9993", "line2": "2 36744   4.7700  75.5552 0001064 351.7830 216.9341  1.00271905 50939"}
